{
  "type": "FeatureCollection",
  "features": [
    {
      "type": "Feature",
      "properties": {
        "OBJECT_NAME": "EUTELSAT 7A",
        "OBJECT_ID": "2004-008A",
        "EPOCH": "2025-11-29T11:29:50.218080",
        "MEAN_MOTION": 1.00272821,
        "ECCENTRICITY": 0.0001186,
        "INCLINATION": 5.3215,
        "RA_OF_ASC_NODE": 74.3983,
        "ARG_OF_PERICENTER": 198.4053,
        "MEAN_ANOMALY": 189.0759,
        "EPHEMERIS_TYPE": 0,
        "CLASSIFICATION_TYPE": "U",
        "NORAD_CAT_ID": 28187,
        "ELEMENT_SET_NO": 999,
        "REV_AT_EPOCH": 7935,
        "BSTAR": 0,
        "MEAN_MOTION_DOT": 1.24e-06,
        "MEAN_MOTION_DDOT": 0,
        "norad_id": 28187,
        "name": "EUTELSAT 7A",
        "group": "eutelsat",
        "longitude_deg": NaN,
        "latitude_deg": NaN,
        "alt_km": NaN,
        "orbit_class": "HEO",
        "timestamp": "2025-11-30T04:52:16.836871+00:00"
      },
      "geometry": {
        "type": "Point",
        "coordinates": [
          NaN,
          NaN
        ]
      }
    },
    {
      "type": "Feature",
      "properties": {
        "OBJECT_NAME": "EUTELSAT 174A",
        "OBJECT_ID": "2005-052A",
        "EPOCH": "2025-11-29T16:24:44.474112",
        "MEAN_MOTION": 1.0027035,
        "ECCENTRICITY": 0.0006391,
        "INCLINATION": 3.712,
        "RA_OF_ASC_NODE": 79.0034,
        "ARG_OF_PERICENTER": 168.5482,
        "MEAN_ANOMALY": 241.4551,
        "EPHEMERIS_TYPE": 0,
        "CLASSIFICATION_TYPE": "U",
        "NORAD_CAT_ID": 28924,
        "ELEMENT_SET_NO": 999,
        "REV_AT_EPOCH": 5033,
        "BSTAR": 0,
        "MEAN_MOTION_DOT": 3.1e-07,
        "MEAN_MOTION_DDOT": 0,
        "norad_id": 28924,
        "name": "EUTELSAT 174A",
        "group": "eutelsat",
        "longitude_deg": NaN,
        "latitude_deg": NaN,
        "alt_km": NaN,
        "orbit_class": "HEO",
        "timestamp": "2025-11-30T04:52:16.837170+00:00"
      },
      "geometry": {
        "type": "Point",
        "coordinates": [
          NaN,
          NaN
        ]
      }
    },
    {
      "type": "Feature",
      "properties": {
        "OBJECT_NAME": "EUTELSAT HOTBIRD 13B",
        "OBJECT_ID": "2006-032A",
        "EPOCH": "2025-11-29T20:36:01.586880",
        "MEAN_MOTION": 1.00269993,
        "ECCENTRICITY": 0.0003577,
        "INCLINATION": 1.1443,
        "RA_OF_ASC_NODE": 84.478,
        "ARG_OF_PERICENTER": 158.2262,
        "MEAN_ANOMALY": 168.398,
        "EPHEMERIS_TYPE": 0,
        "CLASSIFICATION_TYPE": "U",
        "NORAD_CAT_ID": 29270,
        "ELEMENT_SET_NO": 999,
        "REV_AT_EPOCH": 4530,
        "BSTAR": 0,
        "MEAN_MOTION_DOT": 1.77e-06,
        "MEAN_MOTION_DDOT": 0,
        "norad_id": 29270,
        "name": "EUTELSAT HOTBIRD 13B",
        "group": "eutelsat",
        "longitude_deg": NaN,
        "latitude_deg": NaN,
        "alt_km": NaN,
        "orbit_class": "HEO",
        "timestamp": "2025-11-30T04:52:16.837232+00:00"
      },
      "geometry": {
        "type": "Point",
        "coordinates": [
          NaN,
          NaN
        ]
      }
    },
    {
      "type": "Feature",
      "properties": {
        "OBJECT_NAME": "EUTELSAT HOTBIRD 13C",
        "OBJECT_ID": "2008-065A",
        "EPOCH": "2025-11-29T18:49:55.991712",
        "MEAN_MOTION": 1.00050412,
        "ECCENTRICITY": 9.93e-05,
        "INCLINATION": 2.4351,
        "RA_OF_ASC_NODE": 81.5603,
        "ARG_OF_PERICENTER": 173.0461,
        "MEAN_ANOMALY": 59.7259,
        "EPHEMERIS_TYPE": 0,
        "CLASSIFICATION_TYPE": "U",
        "NORAD_CAT_ID": 33459,
        "ELEMENT_SET_NO": 999,
        "REV_AT_EPOCH": 4534,
        "BSTAR": 0,
        "MEAN_MOTION_DOT": -2.42e-06,
        "MEAN_MOTION_DDOT": 0,
        "norad_id": 33459,
        "name": "EUTELSAT HOTBIRD 13C",
        "group": "eutelsat",
        "longitude_deg": NaN,
        "latitude_deg": NaN,
        "alt_km": NaN,
        "orbit_class": "HEO",
        "timestamp": "2025-11-30T04:52:16.837877+00:00"
      },
      "geometry": {
        "type": "Point",
        "coordinates": [
          NaN,
          NaN
        ]
      }
    },
    {
      "type": "Feature",
      "properties": {
        "OBJECT_NAME": "EUTELSAT 36B",
        "OBJECT_ID": "2009-065A",
        "EPOCH": "2025-11-29T19:15:01.090080",
        "MEAN_MOTION": 1.00272158,
        "ECCENTRICITY": 0.0006218,
        "INCLINATION": 0.0471,
        "RA_OF_ASC_NODE": 21.523,
        "ARG_OF_PERICENTER": 228.5341,
        "MEAN_ANOMALY": 158.1427,
        "EPHEMERIS_TYPE": 0,
        "CLASSIFICATION_TYPE": "U",
        "NORAD_CAT_ID": 36101,
        "ELEMENT_SET_NO": 999,
        "REV_AT_EPOCH": 5870,
        "BSTAR": 0,
        "MEAN_MOTION_DOT": 1.33e-06,
        "MEAN_MOTION_DDOT": 0,
        "norad_id": 36101,
        "name": "EUTELSAT 36B",
        "group": "eutelsat",
        "longitude_deg": NaN,
        "latitude_deg": NaN,
        "alt_km": NaN,
        "orbit_class": "HEO",
        "timestamp": "2025-11-30T04:52:16.838155+00:00"
      },
      "geometry": {
        "type": "Point",
        "coordinates": [
          NaN,
          NaN
        ]
      }
    },
    {
      "type": "Feature",
      "properties": {
        "OBJECT_NAME": "EUTELSAT KA-SAT 9A",
        "OBJECT_ID": "2010-069A",
        "EPOCH": "2025-11-29T19:03:09.726048",
        "MEAN_MOTION": 1.00269509,
        "ECCENTRICITY": 0.0001085,
        "INCLINATION": 0.0549,
        "RA_OF_ASC_NODE": 326.1063,
        "ARG_OF_PERICENTER": 230.3799,
        "MEAN_ANOMALY": 167.2577,
        "EPHEMERIS_TYPE": 0,
        "CLASSIFICATION_TYPE": "U",
        "NORAD_CAT_ID": 37258,
        "ELEMENT_SET_NO": 999,
        "REV_AT_EPOCH": 4200,
        "BSTAR": 0,
        "MEAN_MOTION_DOT": 8.3e-07,
        "MEAN_MOTION_DDOT": 0,
        "norad_id": 37258,
        "name": "EUTELSAT KA-SAT 9A",
        "group": "eutelsat",
        "longitude_deg": NaN,
        "latitude_deg": NaN,
        "alt_km": NaN,
        "orbit_class": "HEO",
        "timestamp": "2025-11-30T04:52:16.838595+00:00"
      },
      "geometry": {
        "type": "Point",
        "coordinates": [
          NaN,
          NaN
        ]
      }
    },
    {
      "type": "Feature",
      "properties": {
        "OBJECT_NAME": "EUTELSAT 7 WEST A",
        "OBJECT_ID": "2011-051A",
        "EPOCH": "2025-11-29T17:15:47.087136",
        "MEAN_MOTION": 1.00271497,
        "ECCENTRICITY": 0.0006012,
        "INCLINATION": 0.0627,
        "RA_OF_ASC_NODE": 356.2449,
        "ARG_OF_PERICENTER": 225.7429,
        "MEAN_ANOMALY": 98.5213,
        "EPHEMERIS_TYPE": 0,
        "CLASSIFICATION_TYPE": "U",
        "NORAD_CAT_ID": 37816,
        "ELEMENT_SET_NO": 999,
        "REV_AT_EPOCH": 5187,
        "BSTAR": 0,
        "MEAN_MOTION_DOT": -3.9e-07,
        "MEAN_MOTION_DDOT": 0,
        "norad_id": 37816,
        "name": "EUTELSAT 7 WEST A",
        "group": "eutelsat",
        "longitude_deg": NaN,
        "latitude_deg": NaN,
        "alt_km": NaN,
        "orbit_class": "HEO",
        "timestamp": "2025-11-30T04:52:16.838872+00:00"
      },
      "geometry": {
        "type": "Point",
        "coordinates": [
          NaN,
          NaN
        ]
      }
    },
    {
      "type": "Feature",
      "properties": {
        "OBJECT_NAME": "EUTELSAT 16A",
        "OBJECT_ID": "2011-057A",
        "EPOCH": "2025-11-29T19:05:09.534336",
        "MEAN_MOTION": 1.00272372,
        "ECCENTRICITY": 0.0006034,
        "INCLINATION": 0.0643,
        "RA_OF_ASC_NODE": 15.1064,
        "ARG_OF_PERICENTER": 240.9402,
        "MEAN_ANOMALY": 115.1708,
        "EPHEMERIS_TYPE": 0,
        "CLASSIFICATION_TYPE": "U",
        "NORAD_CAT_ID": 37836,
        "ELEMENT_SET_NO": 999,
        "REV_AT_EPOCH": 532,
        "BSTAR": 0,
        "MEAN_MOTION_DOT": 1.25e-06,
        "MEAN_MOTION_DDOT": 0,
        "norad_id": 37836,
        "name": "EUTELSAT 16A",
        "group": "eutelsat",
        "longitude_deg": NaN,
        "latitude_deg": NaN,
        "alt_km": NaN,
        "orbit_class": "HEO",
        "timestamp": "2025-11-30T04:52:16.838903+00:00"
      },
      "geometry": {
        "type": "Point",
        "coordinates": [
          NaN,
          NaN
        ]
      }
    }
  ]
}