EUTELSAT 7A             
1 28187U 04008A   25333.47905345  .00000124  00000+0  00000+0 0  9996
2 28187   5.3215  74.3983 0001186 198.4053 189.0759  1.00272821 79350
EUTELSAT 174A           
1 28924U 05052A   25333.68384808  .00000031  00000+0  00000+0 0  9990
2 28924   3.7120  79.0034 0006391 168.5482 241.4551  1.00270350 50337
EUTELSAT HOTBIRD 13B    
1 29270U 06032A   25333.85835170  .00000177  00000+0  00000+0 0  9997
2 29270   1.1443  84.4780 0003577 158.2262 168.3980  1.00269993 45300
EUTELSAT HOTBIRD 13C    
1 33459U 08065A   25333.78467583 -.00000242  00000+0  00000+0 0  9994
2 33459   2.4351  81.5603 0000993 173.0461  59.7259  1.00050412 45343
EUTELSAT 36B            
1 36101U 09065A   25333.80209595  .00000133  00000+0  00000+0 0  9990
2 36101   0.0471  21.5230 0006218 228.5341 158.1427  1.00272158 58704
EUTELSAT KA-SAT 9A      
1 37258U 10069A   25333.79386257  .00000083  00000+0  00000+0 0  9993
2 37258   0.0549 326.1063 0001085 230.3799 167.2577  1.00269509 42006
EUTELSAT 7 WEST A       
1 37816U 11051A   25333.71929499 -.00000039  00000+0  00000+0 0  9990
2 37816   0.0627 356.2449 0006012 225.7429  98.5213  1.00271497 51875
EUTELSAT 16A            
1 37836U 11057A   25333.79524924  .00000125  00000+0  00000+0 0  9995
2 37836   0.0643  15.1064 0006034 240.9402 115.1708  1.00272372  5320
